QIANFAN-1               
1 60379U 24140A   25365.87534296  .00000183  00000+0  26383-3 0  9997
2 60379  88.9775 297.3015 0017724 153.6881 206.5175 13.50982399 69933
QIANFAN-2               
1 60380U 24140B   25365.90427375  .00000181  00000+0  26100-3 0  9997
2 60380  88.9761 297.1352 0013857 125.2561 234.9889 13.50986216 69990
QIANFAN-3               
1 60381U 24140C   25365.91243421  .00000177  00000+0  25583-3 0  9996
2 60381  88.9754 297.2655 0014621 137.5031 222.7255 13.50986712 69902
QIANFAN-4               
1 60382U 24140D   25365.88767065  .00000192  00000+0  27793-3 0  9990
2 60382  88.9779 297.1705 0014010 127.8213 232.4209 13.50982460 70029
QIANFAN-5               
1 60383U 24140E   25365.86309302  .00000184  00000+0  26645-3 0  9991
2 60383  88.9754 297.2960 0015532 149.0053 211.2018 13.50984487 69881
QIANFAN-6               
1 60384U 24140F   25365.88367694  .00000191  00000+0  27723-3 0  9998
2 60384  88.9780 297.0452 0013977 133.4344 226.7973 13.50984751 70085
QIANFAN-7               
1 60385U 24140G   25365.87904466  .00001284  00000+0  51459-3 0  9999
2 60385  88.9793 291.4754 0014927 346.8108  13.2694 14.27682714 73123
QIANFAN-8               
1 60386U 24140H   25365.89197053  .00000239  00000+0  35180-3 0  9990
2 60386  88.9782 297.2821 0017355 136.8940 223.3574 13.50986109 69935
